STARLINK-35693          
1 66490U 25263F   25340.33335648 -.02028557  00000+0 -28860-1 0  9997
2 66490  42.9998 162.6841 0001586 269.3180 189.3074 15.59099867  4606
STARLINK-35663          
1 66491U 25263G   25340.33335648 -.02026496  00000+0 -28827-1 0  9991
2 66491  43.0000 162.6741 0001676 269.6569 192.8023 15.59098545  4601
STARLINK-35673          
1 66492U 25263H   25340.33335648 -.02028066  00000+0 -28853-1 0  9996
2 66492  43.0002 162.6693 0001562 270.4359 193.9415 15.59099256  4608
STARLINK-35597          
1 66493U 25263J   25340.33335648 -.02021600  00000+0 -28754-1 0  9994
2 66493  42.9997 162.6640 0001576 272.1185 194.1801 15.59093255  4608
STARLINK-35689          
1 66494U 25263K   25340.33335648 -.02026487  00000+0 -28828-1 0  9995
2 66494  42.9996 162.6789 0001552 270.3256 190.2177 15.59098680  4605
STARLINK-35832          
1 66495U 25263L   25340.33335648 -.02026154  00000+0 -28824-1 0  9993
2 66495  43.0001 162.6596 0001530 272.0957 196.1170 15.59097649  4606
STARLINK-35909          
1 66496U 25263M   25340.33335648 -.02025785  00000+0 -28820-1 0  9999
2 66496  43.0000 162.6547 0001502 270.2748 199.8567 15.59096400  4603
STARLINK-35899          
1 66497U 25263N   25340.33335648 -.02028529  00000+0 -28858-1 0  9990
2 66497  43.0002 162.6496 0001675 270.3734 201.6693 15.59100478  4609
STARLINK-35907          
1 66498U 25263P   25340.33335648 -.02024410  00000+0 -28799-1 0  9990
2 66498  42.9998 162.6443 0001458 270.6933 203.2735 15.59095223  4603
STARLINK-35816          
1 66499U 25263Q   25340.33335648 -.02025212  00000+0 -28811-1 0  9997
2 66499  43.0000 162.6350 0001382 268.7272 209.0723 15.59096824  4606
STARLINK-35894          
1 66500U 25263R   25340.33335648 -.02532979  00000+0 -40836-1 0  9994
2 66500  42.9998 162.6973 0001463 274.2351 178.1997 15.55429451  4605
STARLINK-35897          
1 66501U 25263S   25340.33335648 -.02022948  00000+0 -28773-1 0  9991
2 66501  42.9996 162.6299 0001626 278.0742 201.6401 15.59095646  4603
