CCSDS_OMM_VERS = 2.0
CREATION_DATE  = 
ORIGINATOR     = 

OBJECT_NAME    = STARLINK-35693
OBJECT_ID      = 2025-263F
CENTER_NAME    = EARTH
REF_FRAME      = TEME
TIME_SYSTEM    = UTC
MEAN_ELEMENT_THEORY = SGP/SGP4

EPOCH          = 2025-12-06T08:00:01.999872
MEAN_MOTION    = 15.59099867
ECCENTRICITY   = .00015862
INCLINATION    = 42.9998
RA_OF_ASC_NODE = 162.6841
ARG_OF_PERICENTER = 269.3180
MEAN_ANOMALY   = 189.3074

EPHEMERIS_TYPE = 0
CLASSIFICATION_TYPE = U
NORAD_CAT_ID   = 66490
ELEMENT_SET_NO = 999
REV_AT_EPOCH   = 460
BSTAR          = -.28860027E-1
MEAN_MOTION_DOT = -.2028557E-1
MEAN_MOTION_DDOT = 0

CCSDS_OMM_VERS = 2.0
CREATION_DATE  = 
ORIGINATOR     = 

OBJECT_NAME    = STARLINK-35663
OBJECT_ID      = 2025-263G
CENTER_NAME    = EARTH
REF_FRAME      = TEME
TIME_SYSTEM    = UTC
MEAN_ELEMENT_THEORY = SGP/SGP4

EPOCH          = 2025-12-06T08:00:01.999872
MEAN_MOTION    = 15.59098545
ECCENTRICITY   = .00016764
INCLINATION    = 43.0000
RA_OF_ASC_NODE = 162.6741
ARG_OF_PERICENTER = 269.6569
MEAN_ANOMALY   = 192.8023

EPHEMERIS_TYPE = 0
CLASSIFICATION_TYPE = U
NORAD_CAT_ID   = 66491
ELEMENT_SET_NO = 999
REV_AT_EPOCH   = 460
BSTAR          = -.28826776E-1
MEAN_MOTION_DOT = -.2026496E-1
MEAN_MOTION_DDOT = 0

CCSDS_OMM_VERS = 2.0
CREATION_DATE  = 
ORIGINATOR     = 

OBJECT_NAME    = STARLINK-35673
OBJECT_ID      = 2025-263H
CENTER_NAME    = EARTH
REF_FRAME      = TEME
TIME_SYSTEM    = UTC
MEAN_ELEMENT_THEORY = SGP/SGP4

EPOCH          = 2025-12-06T08:00:01.999872
MEAN_MOTION    = 15.59099256
ECCENTRICITY   = .00015621
INCLINATION    = 43.0002
RA_OF_ASC_NODE = 162.6693
ARG_OF_PERICENTER = 270.4359
MEAN_ANOMALY   = 193.9415

EPHEMERIS_TYPE = 0
CLASSIFICATION_TYPE = U
NORAD_CAT_ID   = 66492
ELEMENT_SET_NO = 999
REV_AT_EPOCH   = 460
BSTAR          = -.28853014E-1
MEAN_MOTION_DOT = -.2028066E-1
MEAN_MOTION_DDOT = 0

CCSDS_OMM_VERS = 2.0
CREATION_DATE  = 
ORIGINATOR     = 

OBJECT_NAME    = STARLINK-35597
OBJECT_ID      = 2025-263J
CENTER_NAME    = EARTH
REF_FRAME      = TEME
TIME_SYSTEM    = UTC
MEAN_ELEMENT_THEORY = SGP/SGP4

EPOCH          = 2025-12-06T08:00:01.999872
MEAN_MOTION    = 15.59093255
ECCENTRICITY   = .00015768
INCLINATION    = 42.9997
RA_OF_ASC_NODE = 162.6640
ARG_OF_PERICENTER = 272.1185
MEAN_ANOMALY   = 194.1801

EPHEMERIS_TYPE = 0
CLASSIFICATION_TYPE = U
NORAD_CAT_ID   = 66493
ELEMENT_SET_NO = 999
REV_AT_EPOCH   = 460
BSTAR          = -.28754144E-1
MEAN_MOTION_DOT = -.20216E-1
MEAN_MOTION_DDOT = 0

CCSDS_OMM_VERS = 2.0
CREATION_DATE  = 
ORIGINATOR     = 

OBJECT_NAME    = STARLINK-35689
OBJECT_ID      = 2025-263K
CENTER_NAME    = EARTH
REF_FRAME      = TEME
TIME_SYSTEM    = UTC
MEAN_ELEMENT_THEORY = SGP/SGP4

EPOCH          = 2025-12-06T08:00:01.999872
MEAN_MOTION    = 15.59098680
ECCENTRICITY   = .00015527
INCLINATION    = 42.9996
RA_OF_ASC_NODE = 162.6789
ARG_OF_PERICENTER = 270.3256
MEAN_ANOMALY   = 190.2177

EPHEMERIS_TYPE = 0
CLASSIFICATION_TYPE = U
NORAD_CAT_ID   = 66494
ELEMENT_SET_NO = 999
REV_AT_EPOCH   = 460
BSTAR          = -.28828029E-1
MEAN_MOTION_DOT = -.2026487E-1
MEAN_MOTION_DDOT = 0

CCSDS_OMM_VERS = 2.0
CREATION_DATE  = 
ORIGINATOR     = 

OBJECT_NAME    = STARLINK-35832
OBJECT_ID      = 2025-263L
CENTER_NAME    = EARTH
REF_FRAME      = TEME
TIME_SYSTEM    = UTC
MEAN_ELEMENT_THEORY = SGP/SGP4

EPOCH          = 2025-12-06T08:00:01.999872
MEAN_MOTION    = 15.59097649
ECCENTRICITY   = .00015301
INCLINATION    = 43.0001
RA_OF_ASC_NODE = 162.6596
ARG_OF_PERICENTER = 272.0957
MEAN_ANOMALY   = 196.1170

EPHEMERIS_TYPE = 0
CLASSIFICATION_TYPE = U
NORAD_CAT_ID   = 66495
ELEMENT_SET_NO = 999
REV_AT_EPOCH   = 460
BSTAR          = -.28824039E-1
MEAN_MOTION_DOT = -.2026154E-1
MEAN_MOTION_DDOT = 0

CCSDS_OMM_VERS = 2.0
CREATION_DATE  = 
ORIGINATOR     = 

OBJECT_NAME    = STARLINK-35909
OBJECT_ID      = 2025-263M
CENTER_NAME    = EARTH
REF_FRAME      = TEME
TIME_SYSTEM    = UTC
MEAN_ELEMENT_THEORY = SGP/SGP4

EPOCH          = 2025-12-06T08:00:01.999872
MEAN_MOTION    = 15.59096400
ECCENTRICITY   = .00015025
INCLINATION    = 43.0000
RA_OF_ASC_NODE = 162.6547
ARG_OF_PERICENTER = 270.2748
MEAN_ANOMALY   = 199.8567

EPHEMERIS_TYPE = 0
CLASSIFICATION_TYPE = U
NORAD_CAT_ID   = 66496
ELEMENT_SET_NO = 999
REV_AT_EPOCH   = 460
BSTAR          = -.28819743E-1
MEAN_MOTION_DOT = -.2025785E-1
MEAN_MOTION_DDOT = 0

CCSDS_OMM_VERS = 2.0
CREATION_DATE  = 
ORIGINATOR     = 

OBJECT_NAME    = STARLINK-35899
OBJECT_ID      = 2025-263N
CENTER_NAME    = EARTH
REF_FRAME      = TEME
TIME_SYSTEM    = UTC
MEAN_ELEMENT_THEORY = SGP/SGP4

EPOCH          = 2025-12-06T08:00:01.999872
MEAN_MOTION    = 15.59100478
ECCENTRICITY   = .00016754
INCLINATION    = 43.0002
RA_OF_ASC_NODE = 162.6496
ARG_OF_PERICENTER = 270.3734
MEAN_ANOMALY   = 201.6693

EPHEMERIS_TYPE = 0
CLASSIFICATION_TYPE = U
NORAD_CAT_ID   = 66497
ELEMENT_SET_NO = 999
REV_AT_EPOCH   = 460
BSTAR          = -.28857774E-1
MEAN_MOTION_DOT = -.2028529E-1
MEAN_MOTION_DDOT = 0

CCSDS_OMM_VERS = 2.0
CREATION_DATE  = 
ORIGINATOR     = 

OBJECT_NAME    = STARLINK-35907
OBJECT_ID      = 2025-263P
CENTER_NAME    = EARTH
REF_FRAME      = TEME
TIME_SYSTEM    = UTC
MEAN_ELEMENT_THEORY = SGP/SGP4

EPOCH          = 2025-12-06T08:00:01.999872
MEAN_MOTION    = 15.59095223
ECCENTRICITY   = .00014585
INCLINATION    = 42.9998
RA_OF_ASC_NODE = 162.6443
ARG_OF_PERICENTER = 270.6933
MEAN_ANOMALY   = 203.2735

EPHEMERIS_TYPE = 0
CLASSIFICATION_TYPE = U
NORAD_CAT_ID   = 66498
ELEMENT_SET_NO = 999
REV_AT_EPOCH   = 460
BSTAR          = -.28799182E-1
MEAN_MOTION_DOT = -.202441E-1
MEAN_MOTION_DDOT = 0

CCSDS_OMM_VERS = 2.0
CREATION_DATE  = 
ORIGINATOR     = 

OBJECT_NAME    = STARLINK-35816
OBJECT_ID      = 2025-263Q
CENTER_NAME    = EARTH
REF_FRAME      = TEME
TIME_SYSTEM    = UTC
MEAN_ELEMENT_THEORY = SGP/SGP4

EPOCH          = 2025-12-06T08:00:01.999872
MEAN_MOTION    = 15.59096824
ECCENTRICITY   = .00013822
INCLINATION    = 43.0000
RA_OF_ASC_NODE = 162.6350
ARG_OF_PERICENTER = 268.7272
MEAN_ANOMALY   = 209.0723

EPHEMERIS_TYPE = 0
CLASSIFICATION_TYPE = U
NORAD_CAT_ID   = 66499
ELEMENT_SET_NO = 999
REV_AT_EPOCH   = 460
BSTAR          = -.28811407E-1
MEAN_MOTION_DOT = -.2025212E-1
MEAN_MOTION_DDOT = 0

CCSDS_OMM_VERS = 2.0
CREATION_DATE  = 
ORIGINATOR     = 

OBJECT_NAME    = STARLINK-35894
OBJECT_ID      = 2025-263R
CENTER_NAME    = EARTH
REF_FRAME      = TEME
TIME_SYSTEM    = UTC
MEAN_ELEMENT_THEORY = SGP/SGP4

EPOCH          = 2025-12-06T08:00:01.999872
MEAN_MOTION    = 15.55429451
ECCENTRICITY   = .00014633
INCLINATION    = 42.9998
RA_OF_ASC_NODE = 162.6973
ARG_OF_PERICENTER = 274.2351
MEAN_ANOMALY   = 178.1997

EPHEMERIS_TYPE = 0
CLASSIFICATION_TYPE = U
NORAD_CAT_ID   = 66500
ELEMENT_SET_NO = 999
REV_AT_EPOCH   = 460
BSTAR          = -.40836313E-1
MEAN_MOTION_DOT = -.2532979E-1
MEAN_MOTION_DDOT = 0

CCSDS_OMM_VERS = 2.0
CREATION_DATE  = 
ORIGINATOR     = 

OBJECT_NAME    = STARLINK-35897
OBJECT_ID      = 2025-263S
CENTER_NAME    = EARTH
REF_FRAME      = TEME
TIME_SYSTEM    = UTC
MEAN_ELEMENT_THEORY = SGP/SGP4

EPOCH          = 2025-12-06T08:00:01.999872
MEAN_MOTION    = 15.59095646
ECCENTRICITY   = .00016263
INCLINATION    = 42.9996
RA_OF_ASC_NODE = 162.6299
ARG_OF_PERICENTER = 278.0742
MEAN_ANOMALY   = 201.6401

EPHEMERIS_TYPE = 0
CLASSIFICATION_TYPE = U
NORAD_CAT_ID   = 66501
ELEMENT_SET_NO = 999
REV_AT_EPOCH   = 460
BSTAR          = -.2877284E-1
MEAN_MOTION_DOT = -.2022948E-1
MEAN_MOTION_DDOT = 0

